NORAD_CAT_ID,OBJECT_NAME,OBJECT_TYPE,EPOCH,MEAN_MOTION,ECCENTRICITY,INCLINATION,RA_OF_ASC_NODE,ARG_OF_PERICENTER,MEAN_ANOMALY,BSTAR,MEAN_MOTION_DOT,MEAN_MOTION_DDOT,TLE_LINE0,TLE_LINE1,TLE_LINE2,SEMIMAJOR_AXIS,PERIOD,APOGEE,PERIGEE,DECAYED
53418.0,STARLINK-4481,PAYLOAD,2024-07-27 18:43:20,15.08845011,0.0001415,53.2165,231.8941,88.3801,271.7353,4.634e-05,4.5e-06,0.0,0 STARLINK-4481,1 53418U 22097AG  24209.78009616  .00000450  00000-0  46340-4 0  9995,2 53418  53.2165 231.8941 0001415  88.3801 271.7353 15.08845011109744,6917.865,95.437,540.709,538.751,0.0
53418.0,STARLINK-4481,PAYLOAD,2024-07-28 05:51:02,15.08837397,0.0001431,53.2166,229.8125,85.611,274.5046,0.00011235,1.5e-05,0.0,0 STARLINK-4481,1 53418U 22097AG  24210.24378027  .00001500  00000-0  11235-3 0  9994,2 53418  53.2166 229.8125 0001431  85.6110 274.5046 15.08837397109329,6917.888,95.438,540.743,538.763,0.0
53418.0,STARLINK-4481,PAYLOAD,2024-07-28 10:37:11,15.08842876,0.0001361,53.2158,228.92,86.9122,273.2026,8.3562e-05,1.042e-05,0.0,0 STARLINK-4481,1 53418U 22097AG  24210.44249755  .00001042  00000-0  83562-4 0  9995,2 53418  53.2158 228.9200 0001361  86.9122 273.2026 15.08842876109842,6917.872,95.437,540.678,538.795,0.0
53418.0,STARLINK-4481,PAYLOAD,2024-07-29 07:17:12,15.08841591,0.0001363,53.2152,225.0539,87.4879,272.627,0.0001132,1.514e-05,0.0,0 STARLINK-4481,1 53418U 22097AG  24211.30361820  .00001514  00000-0  11320-3 0  9995,2 53418  53.2152 225.0539 0001363  87.4879 272.6270 15.08841591109483,6917.876,95.437,540.683,538.798,0.0
53418.0,STARLINK-4481,PAYLOAD,2024-07-29 18:24:54,15.08844588,0.0001328,53.2151,222.9721,87.5583,272.5561,7.2728e-05,8.7e-06,0.0,0 STARLINK-4481,1 53418U 22097AG  24211.76729685  .00000870  00000-0  72728-4 0  9996,2 53418  53.2151 222.9721 0001328  87.5583 272.5561 15.08844588110040,6917.866,95.437,540.65,538.813,0.0
53418.0,STARLINK-4481,PAYLOAD,2024-07-30 07:07:59,15.08844202,0.0001371,53.2158,220.5928,91.0543,269.0606,7.606e-05,9.23e-06,0.0,0 STARLINK-4481,1 53418U 22097AG  24212.29721649  .00000923  00000-0  76060-4 0  9999,2 53418  53.2158 220.5928 0001371  91.0543 269.0606 15.08844202110127,6917.868,95.437,540.681,538.784,0.0
53418.0,STARLINK-4481,PAYLOAD,2024-07-31 06:58:47,15.08837802,0.000127,53.2159,216.1332,86.3479,273.7659,3.3253e-05,2.41e-06,0.0,0 STARLINK-4481,1 53418U 22097AG  24213.29082208  .00000241  00000-0  33253-4 0  9991,2 53418  53.2159 216.1332 0001270  86.3479 273.7659 15.08837802110275,6917.887,95.438,540.631,538.874,0.0
53418.0,STARLINK-4481,PAYLOAD,2024-08-01 05:14:10,15.08841773,0.0001293,53.2161,211.9697,86.1171,273.9969,7.355e-05,8.83e-06,0.0,0 STARLINK-4481,1 53418U 22097AG  24214.21817927  .00000883  00000-0  73550-4 0  9994,2 53418  53.2161 211.9697 0001293  86.1171 273.9969 15.08841773109925,6917.875,95.437,540.634,538.845,0.0
53418.0,STARLINK-4481,PAYLOAD,2024-08-01 10:00:19,15.08844093,0.0001296,53.2158,211.0763,87.6695,272.4445,9.8044e-05,1.273e-05,0.0,0 STARLINK-4481,1 53418U 22097AG  24214.41689675  .00001273  00000-0  98044-4 0  9992,2 53418  53.2158 211.0763 0001296  87.6695 272.4445 15.08844093110446,6917.868,95.437,540.629,538.836,0.0
53418.0,STARLINK-4481,PAYLOAD,2024-08-01 16:21:52,15.08846453,0.0001323,53.2163,209.8873,88.9077,271.2067,0.00011328,1.516e-05,0.0,0 STARLINK-4481,1 53418U 22097AG  24214.68185458  .00001516  00000-0  11328-3 0  9990,2 53418  53.2163 209.8873 0001323  88.9077 271.2067 15.08846453110481,6917.861,95.437,540.641,538.81,0.0
53418.0,STARLINK-4481,PAYLOAD,2024-08-02 05:04:58,15.08826651,0.0001502,53.2164,207.5112,101.2537,258.8624,3.7742e-05,3.13e-06,0.0,0 STARLINK-4481,1 53418U 22097AG  24215.21179123  .00000313  00000-0  37742-4 0  9995,2 53418  53.2164 207.5112 0001502 101.2537 258.8624 15.08826651110075,6917.921,95.438,540.825,538.747,0.0
53418.0,STARLINK-4481,PAYLOAD,2024-08-02 06:40:21,15.08827535,0.0001503,53.2161,207.2142,102.5403,257.5757,4.2828e-05,3.93e-06,0.0,0 STARLINK-4481,1 53418U 22097AG  24215.27803086  .00000393  00000-0  42828-4 0  9992,2 53418  53.2161 207.2142 0001503 102.5403 257.5757 15.08827535110579,6917.918,95.438,540.823,538.744,0.0
53418.0,STARLINK-4481,PAYLOAD,2024-08-02 16:12:40,15.08834627,0.0001519,53.2177,205.4317,106.8933,253.2226,5.91e-05,6.53e-06,0.0,0 STARLINK-4481,1 53418U 22097AG  24215.67546834  .00000653  00000-0  59100-4 0  9991,2 53418  53.2177 205.4317 0001519 106.8933 253.2226 15.08834627110149,6917.897,95.438,540.813,538.711,0.0
53418.0,STARLINK-4481,PAYLOAD,2024-08-03 06:31:08,15.08843594,0.0001437,53.2164,202.7534,101.1088,259.0065,3.3442e-05,2.44e-06,0.0,0 STARLINK-4481,1 53418U 22097AG  24216.27162320  .00000244  00000-0  33442-4 0  9999,2 53418  53.2164 202.7534 0001437 101.1088 259.0065 15.08843594110232,6917.869,95.437,540.729,538.74,0.0
53418.0,STARLINK-4481,PAYLOAD,2024-08-03 16:03:26,15.08851267,0.000136,53.2166,200.9678,91.9922,268.1226,9.0089e-05,1.147e-05,0.0,0 STARLINK-4481,1 53418U 22097AG  24216.66905565  .00001147  00000-0  90089-4 0  9991,2 53418  53.2166 200.9678 0001360  91.9922 268.1226 15.08851267110293,6917.846,95.437,540.652,538.77,0.0
53418.0,STARLINK-4481,PAYLOAD,2024-08-03 22:25:00,15.08830264,0.0001345,53.2166,199.7782,85.8712,274.2433,8.9766e-05,1.141e-05,0.0,0 STARLINK-4481,1 53418U 22097AG  24216.93402904  .00001141  00000-0  89766-4 0  9994,2 53418  53.2166 199.7782 0001345  85.8712 274.2433 15.08830264110827,6917.91,95.438,540.706,538.845,0.0
53418.0,STARLINK-4481,PAYLOAD,2024-08-04 04:46:32,15.08838478,0.0001233,53.2159,198.5876,95.5499,264.5634,8.8596e-05,1.122e-05,0.0,0 STARLINK-4481,1 53418U 22097AG  24217.19898416  .00001122  00000-0  88596-4 0  9999,2 53418  53.2159 198.5876 0001233  95.5499 264.5634 15.08838478110376,6917.885,95.438,540.603,538.897,0.0
53418.0,STARLINK-4481,PAYLOAD,2024-08-04 06:21:55,15.08840198,0.0001227,53.2159,198.2903,91.0694,269.0439,0.00010138,1.326e-05,0.0,0 STARLINK-4481,1 53418U 22097AG  24217.26522286  .00001326  00000-0  10138-3 0  9998,2 53418  53.2159 198.2903 0001227  91.0694 269.0439 15.08840198110875,6917.88,95.438,540.594,538.896,0.0
53418.0,STARLINK-4481,PAYLOAD,2024-08-04 15:54:13,15.08845846,0.0001331,53.2164,196.5073,86.4938,273.6206,0.00015006,2.101e-05,0.0,0 STARLINK-4481,1 53418U 22097AG  24217.66265796  .00002101  00000-0  15006-3 0  9993,2 53418  53.2164 196.5073 0001331  86.4938 273.6206 15.08845846110446,6917.863,95.437,540.648,538.807,0.0
53418.0,STARLINK-4481,PAYLOAD,2024-08-05 15:44:59,15.08854926,0.0001226,53.2155,192.0439,87.3377,272.7756,8.2644e-05,1.028e-05,0.0,0 STARLINK-4481,1 53418U 22097AG  24218.65624983  .00001028  00000-0  82644-4 0  9990,2 53418  53.2155 192.0439 0001226  87.3377 272.7756 15.08854926111083,6917.835,95.437,540.548,538.852,0.0
53418.0,STARLINK-4481,PAYLOAD,2024-08-06 04:28:06,15.0882945,0.0001439,53.2161,189.6641,92.9387,267.177,-3.68e-05,-8.73e-06,0.0,0 STARLINK-4481,1 53418U 22097AG  24219.18619104 -.00000873  00000-0 -36800-4 0  9990,2 53418  53.2161 189.6641 0001439  92.9387 267.1770 15.08829450110678,6917.913,95.438,540.773,538.782,0.0
53418.0,STARLINK-4481,PAYLOAD,2024-08-06 15:35:48,15.08839924,0.000128,53.2164,187.5865,81.4893,278.6244,-7.9381e-06,-4.14e-06,0.0,0 STARLINK-4481,1 53418U 22097AG  24219.64986505 -.00000414  00000-0 -79381-5 0  9996,2 53418  53.2164 187.5865 0001280  81.4893 278.6244 15.08839924110743,6917.881,95.438,540.631,538.86,0.0
53418.0,STARLINK-4481,PAYLOAD,2024-08-07 04:18:53,15.08842797,0.000154,53.2161,185.2057,90.5395,269.5774,8.9699e-05,1.14e-05,0.0,0 STARLINK-4481,1 53418U 22097AG  24220.17978450  .00001140  00000-0  89699-4 0  9993,2 53418  53.2161 185.2057 0001540  90.5395 269.5774 15.08842797111318,6917.872,95.437,540.802,538.671,0.0
53418.0,STARLINK-4481,PAYLOAD,2024-08-08 07:20:27,15.08838237,0.0001445,53.2159,180.1484,101.8319,258.2835,0.00022394,3.278e-05,0.0,0 STARLINK-4481,1 53418U 22097AG  24221.30586818  .00003278  00000-0  22394-3 0  9994,2 53418  53.2159 180.1484 0001445 101.8319 258.2835 15.08838237111484,6917.886,95.438,540.75,538.751,0.0
53418.0,STARLINK-4481,PAYLOAD,2024-08-09 04:00:26,15.08860766,0.0001228,53.2158,176.2827,84.9183,275.1949,0.00030533,4.577e-05,0.0,0 STARLINK-4481,1 53418U 22097AG  24222.16697684  .00004577  00000-0  30533-3 0  9990,2 53418  53.2158 176.2827 0001228  84.9183 275.1949 15.08860766111126,6917.817,95.436,540.531,538.832,0.0
53418.0,STARLINK-4481,PAYLOAD,2024-08-09 13:32:44,15.08870922,0.0001185,53.2175,174.4979,93.6633,266.4494,0.00028104,4.191e-05,0.0,0 STARLINK-4481,1 53418U 22097AG  24222.56439816  .00004191  00000-0  28104-3 0  9998,2 53418  53.2175 174.4979 0001185  93.6633 266.4494 15.08870922111675,6917.786,95.436,540.471,538.831,0.0
53418.0,STARLINK-4481,PAYLOAD,2024-08-09 21:29:43,15.08814723,0.0001072,53.2167,173.012,97.524,262.5874,-0.00013951,-2.506e-05,0.0,0 STARLINK-4481,1 53418U 22097AG  24222.89564502 -.00002506  00000-0 -13951-3 0  9999,2 53418  53.2167 173.0120 0001072  97.5240 262.5874 15.08814723111239,6917.958,95.439,540.564,539.081,0.0
53418.0,STARLINK-4481,PAYLOAD,2024-08-10 03:51:15,15.08829812,0.00014,53.217,171.8221,116.6975,243.4161,-5.1105e-06,-3.69e-06,0.0,0 STARLINK-4481,1 53418U 22097AG  24223.16059332 -.00000369  00000-0 -51105-5 0  9990,2 53418  53.2170 171.8221 0001400 116.6975 243.4161 15.08829812111270,6917.912,95.438,540.745,538.808,0.0
53418.0,STARLINK-4481,PAYLOAD,2024-08-10 05:26:38,15.08833636,0.0001274,53.2173,171.525,112.7659,247.3467,2.6424e-05,1.33e-06,0.0,0 STARLINK-4481,1 53418U 22097AG  24223.22683041  .00000133  00000-0  26424-4 0  9999,2 53418  53.2173 171.5250 0001274 112.7659 247.3467 15.08833636111773,6917.9,95.438,540.646,538.884,0.0
53418.0,STARLINK-4481,PAYLOAD,2024-08-10 21:20:29,15.08838076,0.0001145,53.2172,168.5529,109.2565,250.8551,6.712e-05,7.81e-06,0.0,0 STARLINK-4481,1 53418U 22097AG  24223.88922988  .00000781  00000-0  67120-4 0  9994,2 53418  53.2172 168.5529 0001145 109.2565 250.8551 15.08838076111384,6917.886,95.438,540.543,538.959,0.0
